[{"OBJECT_NAME":"STARLINK-34950","OBJECT_ID":"2025-175V","EPOCH":"2026-03-09T14:59:22.156800","MEAN_MOTION":15.0565737,"ECCENTRICITY":0.000252,"INCLINATION":97.6017,"RA_OF_ASC_NODE":302.6406,"ARG_OF_PERICENTER":74.5682,"MEAN_ANOMALY":285.5823,"EPHEMERIS_TYPE":0,"CLASSIFICATION_TYPE":"U","NORAD_CAT_ID":65193,"ELEMENT_SET_NO":999,"REV_AT_EPOCH":3260,"BSTAR":-4.3173e-5,"MEAN_MOTION_DOT":-6.84e-6,"MEAN_MOTION_DDOT":0},{"OBJECT_NAME":"COSMOS 886 DEB","OBJECT_ID":"1976-126AN","EPOCH":"2026-03-09T12:28:16.403520","MEAN_MOTION":13.47851871,"ECCENTRICITY":0.0740468,"INCLINATION":65.8391,"RA_OF_ASC_NODE":149.6537,"ARG_OF_PERICENTER":339.428,"MEAN_ANOMALY":17.8327,"EPHEMERIS_TYPE":0,"CLASSIFICATION_TYPE":"U","NORAD_CAT_ID":9826,"ELEMENT_SET_NO":999,"REV_AT_EPOCH":34894,"BSTAR":0.00081724115,"MEAN_MOTION_DOT":2.801e-5,"MEAN_MOTION_DDOT":0}]
